{"type": "FeatureCollection", "features": [ {"type": "Feature", "properties": {"norad_id": 31012, "name": "FENGYUN 1C DEB", "group": "fengyun-1c-debris", "lat": 55.69785554093832, "lon": -133.90555554784444, "alt_km": 843.8202477931745, "timestamp": "2025-12-07T09:35:10.070350+00:00", "meta": {"OBJECT_NAME": "FENGYUN 1C DEB", "OBJECT_ID": "1999-025BDE", "EPOCH": "2025-12-06T23:17:57.833664", "MEAN_MOTION": 14.27853576, "ECCENTRICITY": 0.00813212, "INCLINATION": 98.9115, "RA_OF_ASC_NODE": 238.9539, "ARG_OF_PERICENTER": 268.3774, "MEAN_ANOMALY": 105.9982, "EPHEMERIS_TYPE": 0, "CLASSIFICATION_TYPE": "U", "NORAD_CAT_ID": 31012, "ELEMENT_SET_NO": 999, "REV_AT_EPOCH": 97665, "BSTAR": 0.00036351662, "MEAN_MOTION_DOT": 8.84e-06, "MEAN_MOTION_DDOT": 0}, "tle": {"line1": "1 31012U 99025BDE 25340.97080826  .00000884  00000+0  36352-3 0  9997", "line2": "2 31012  98.9115 238.9539 0081321 268.3774 105.9982 14.27853576976658"}}, "geometry": {"type": "Point", "coordinates": [-133.90555554784444, 55.69785554093832]}}, {"type": "Feature", "properties": {"norad_id": 31014, "name": "FENGYUN 1C DEB", "group": "fengyun-1c-debris", "lat": 23.509191398506136, "lon": 141.07850058121437, "alt_km": 858.9863061631122, "timestamp": "2025-12-07T09:35:10.070360+00:00", "meta": {"OBJECT_NAME": "FENGYUN 1C DEB", "OBJECT_ID": "1999-025BDG", "EPOCH": "2025-12-06T05:25:42.548160", "MEAN_MOTION": 13.98483671, "ECCENTRICITY": 0.00874793, "INCLINATION": 98.8669, "RA_OF_ASC_NODE": 316.0506, "ARG_OF_PERICENTER": 211.4111, "MEAN_ANOMALY": 162.0048, "EPHEMERIS_TYPE": 0, "CLASSIFICATION_TYPE": "U", "NORAD_CAT_ID": 31014, "ELEMENT_SET_NO": 999, "REV_AT_EPOCH": 95745, "BSTAR": 0.00043882387, "MEAN_MOTION_DOT": 6.06e-06, "MEAN_MOTION_DDOT": 0}, "tle": {"line1": "1 31014U 99025BDG 25340.22618690  .00000606  00000+0  43882-3 0  9991", "line2": "2 31014  98.8669 316.0506 0087479 211.4111 162.0048 13.98483671957455"}}, "geometry": {"type": "Point", "coordinates": [141.07850058121437, 23.509191398506136]}}, {"type": "Feature", "properties": {"norad_id": 31016, "name": "FENGYUN 1C DEB", "group": "fengyun-1c-debris", "lat": 17.282642515826886, "lon": -5.2624692981763905, "alt_km": 786.0083352191405, "timestamp": "2025-12-07T09:35:10.070370+00:00", "meta": {"OBJECT_NAME": "FENGYUN 1C DEB", "OBJECT_ID": "1999-025BDJ", "EPOCH": "2025-12-03T08:13:01.747776", "MEAN_MOTION": 14.30468358, "ECCENTRICITY": 0.0112189, "INCLINATION": 98.4374, "RA_OF_ASC_NODE": 353.4483, "ARG_OF_PERICENTER": 302.1809, "MEAN_ANOMALY": 73.5512, "EPHEMERIS_TYPE": 0, "CLASSIFICATION_TYPE": "U", "NORAD_CAT_ID": 31016, "ELEMENT_SET_NO": 999, "REV_AT_EPOCH": 97336, "BSTAR": 0.00042529, "MEAN_MOTION_DOT": 1.141e-05, "MEAN_MOTION_DDOT": 0}, "tle": {"line1": "1 31016U 99025BDJ 25337.34238134  .00001141  00000+0  42529-3 0  9995", "line2": "2 31016  98.4374 353.4483 0112189 302.1809  73.5512 14.30468358973366"}}, "geometry": {"type": "Point", "coordinates": [-5.2624692981763905, 17.282642515826886]}}, {"type": "Feature", "properties": {"norad_id": 31017, "name": "FENGYUN 1C DEB", "group": "fengyun-1c-debris", "lat": 51.29632533532634, "lon": -43.26442539834462, "alt_km": 802.0360179757854, "timestamp": "2025-12-07T09:35:10.070380+00:00", "meta": {"OBJECT_NAME": "FENGYUN 1C DEB", "OBJECT_ID": "1999-025BDK", "EPOCH": "2025-12-06T04:38:35.153952", "MEAN_MOTION": 14.08805775, "ECCENTRICITY": 0.0113514, "INCLINATION": 98.68, "RA_OF_ASC_NODE": 326.565, "ARG_OF_PERICENTER": 8.6706, "MEAN_ANOMALY": 49.7246, "EPHEMERIS_TYPE": 0, "CLASSIFICATION_TYPE": "U", "NORAD_CAT_ID": 31017, "ELEMENT_SET_NO": 999, "REV_AT_EPOCH": 96204, "BSTAR": 0.00075837839, "MEAN_MOTION_DOT": 1.346e-05, "MEAN_MOTION_DDOT": 0}, "tle": {"line1": "1 31017U 99025BDK 25340.19346243  .00001346  00000+0  75838-3 0  9990", "line2": "2 31017  98.6800 326.5650 0113514   8.6706  49.7246 14.08805775962042"}}, "geometry": {"type": "Point", "coordinates": [-43.26442539834462, 51.29632533532634]}}, {"type": "Feature", "properties": {"norad_id": 31018, "name": "FENGYUN 1C DEB", "group": "fengyun-1c-debris", "lat": 60.301795557299414, "lon": -95.72490371534315, "alt_km": 790.2613762053552, "timestamp": "2025-12-07T09:35:10.070392+00:00", "meta": {"OBJECT_NAME": "FENGYUN 1C DEB", "OBJECT_ID": "1999-025BDL", "EPOCH": "2025-12-06T12:41:32.234784", "MEAN_MOTION": 14.16858937, "ECCENTRICITY": 0.00596175, "INCLINATION": 99.0259, "RA_OF_ASC_NODE": 67.2102, "ARG_OF_PERICENTER": 143.2629, "MEAN_ANOMALY": 217.2653, "EPHEMERIS_TYPE": 0, "CLASSIFICATION_TYPE": "U", "NORAD_CAT_ID": 31018, "ELEMENT_SET_NO": 999, "REV_AT_EPOCH": 95967, "BSTAR": 0.0034216843, "MEAN_MOTION_DOT": 6.939e-05, "MEAN_MOTION_DDOT": 0}, "tle": {"line1": "1 31018U 99025BDL 25340.52884531  .00006939  00000+0  34217-2 0  9993", "line2": "2 31018  99.0259  67.2102 0059617 143.2629 217.2653 14.16858937959676"}}, "geometry": {"type": "Point", "coordinates": [-95.72490371534315, 60.301795557299414]}}, {"type": "Feature", "properties": {"norad_id": 31019, "name": "FENGYUN 1C DEB", "group": "fengyun-1c-debris", "lat": -54.382440038496746, "lon": -166.49654146347575, "alt_km": 867.8947855488577, "timestamp": "2025-12-07T09:35:10.070405+00:00", "meta": {"OBJECT_NAME": "FENGYUN 1C DEB", "OBJECT_ID": "1999-025BDM", "EPOCH": "2025-12-06T19:46:46.488288", "MEAN_MOTION": 11.82957686, "ECCENTRICITY": 0.11189634, "INCLINATION": 98.7021, "RA_OF_ASC_NODE": 180.7817, "ARG_OF_PERICENTER": 294.848, "MEAN_ANOMALY": 78.8585, "EPHEMERIS_TYPE": 0, "CLASSIFICATION_TYPE": "U", "NORAD_CAT_ID": 31019, "ELEMENT_SET_NO": 999, "REV_AT_EPOCH": 55111, "BSTAR": 0.0052564036, "MEAN_MOTION_DOT": 1.948e-05, "MEAN_MOTION_DDOT": 0}, "tle": {"line1": "1 31019U 99025BDM 25340.82414917  .00001948  00000+0  52564-2 0  9994", "line2": "2 31019  98.7021 180.7817 1118963 294.8480  78.8585 11.82957686551116"}}, "geometry": {"type": "Point", "coordinates": [-166.49654146347575, -54.382440038496746]}}, {"type": "Feature", "properties": {"norad_id": 31021, "name": "FENGYUN 1C DEB", "group": "fengyun-1c-debris", "lat": -44.916900643809676, "lon": -96.72514703792929, "alt_km": 493.15441188913974, "timestamp": "2025-12-07T09:35:10.070415+00:00", "meta": {"OBJECT_NAME": "FENGYUN 1C DEB", "OBJECT_ID": "1999-025BDP", "EPOCH": "2025-11-23T02:39:04.527648", "MEAN_MOTION": 14.74941254, "ECCENTRICITY": 0.0268991, "INCLINATION": 98.348, "RA_OF_ASC_NODE": 76.9426, "ARG_OF_PERICENTER": 304.648, "MEAN_ANOMALY": 52.9635, "EPHEMERIS_TYPE": 0, "CLASSIFICATION_TYPE": "U", "NORAD_CAT_ID": 31021, "ELEMENT_SET_NO": 999, "REV_AT_EPOCH": 73143, "BSTAR": 0.00041319973, "MEAN_MOTION_DOT": 4.94e-05, "MEAN_MOTION_DDOT": 0}, "tle": {"line1": "1 31021U 99025BDP 25327.11046907  .00004940  00000+0  41320-3 0  9998", "line2": "2 31021  98.3480  76.9426 0268991 304.6480  52.9635 14.74941254731434"}}, "geometry": {"type": "Point", "coordinates": [-96.72514703792929, -44.916900643809676]}}, {"type": "Feature", "properties": {"norad_id": 31022, "name": "FENGYUN 1C DEB", "group": "fengyun-1c-debris", "lat": -53.278405930782725, "lon": -122.07396899502338, "alt_km": 1012.8400210002028, "timestamp": "2025-12-07T09:35:10.070447+00:00", "meta": {"OBJECT_NAME": "FENGYUN 1C DEB", "OBJECT_ID": "1999-025BDQ", "EPOCH": "2025-12-06T09:40:27.451200", "MEAN_MOTION": 13.90437931, "ECCENTRICITY": 0.01097407, "INCLINATION": 99.5169, "RA_OF_ASC_NODE": 223.9109, "ARG_OF_PERICENTER": 138.7666, "MEAN_ANOMALY": 222.1845, "EPHEMERIS_TYPE": 0, "CLASSIFICATION_TYPE": "U", "NORAD_CAT_ID": 31022, "ELEMENT_SET_NO": 999, "REV_AT_EPOCH": 61920, "BSTAR": 0.00070045227, "MEAN_MOTION_DOT": 8.68e-06, "MEAN_MOTION_DDOT": 0}, "tle": {"line1": "1 31022U 99025BDQ 25340.40309550  .00000868  00000+0  70045-3 0  9993", "line2": "2 31022  99.5169 223.9109 0109740 138.7666 222.1845 13.90437931619205"}}, "geometry": {"type": "Point", "coordinates": [-122.07396899502338, -53.278405930782725]}}, {"type": "Feature", "properties": {"norad_id": 31024, "name": "FENGYUN 1C DEB", "group": "fengyun-1c-debris", "lat": -41.55729630123088, "lon": -97.26994362338725, "alt_km": 882.887379215229, "timestamp": "2025-12-07T09:35:10.070458+00:00", "meta": {"OBJECT_NAME": "FENGYUN 1C DEB", "OBJECT_ID": "1999-025BDS", "EPOCH": "2025-12-06T05:03:20.333664", "MEAN_MOTION": 14.20847233, "ECCENTRICITY": 0.00748561, "INCLINATION": 99.0414, "RA_OF_ASC_NODE": 253.3995, "ARG_OF_PERICENTER": 143.1573, "MEAN_ANOMALY": 217.4779, "EPHEMERIS_TYPE": 0, "CLASSIFICATION_TYPE": "U", "NORAD_CAT_ID": 31024, "ELEMENT_SET_NO": 999, "REV_AT_EPOCH": 96611, "BSTAR": 0.00049997444, "MEAN_MOTION_DOT": 1.066e-05, "MEAN_MOTION_DDOT": 0}, "tle": {"line1": "1 31024U 99025BDS 25340.21065201  .00001066  00000+0  49997-3 0  9999", "line2": "2 31024  99.0414 253.3995 0074856 143.1573 217.4779 14.20847233966113"}}, "geometry": {"type": "Point", "coordinates": [-97.26994362338725, -41.55729630123088]}}, {"type": "Feature", "properties": {"norad_id": 31025, "name": "FENGYUN 1C DEB", "group": "fengyun-1c-debris", "lat": 20.256152265554892, "lon": 154.93628490350463, "alt_km": 904.5714641825471, "timestamp": "2025-12-07T09:35:10.070468+00:00", "meta": {"OBJECT_NAME": "FENGYUN 1C DEB", "OBJECT_ID": "1999-025BDT", "EPOCH": "2025-12-06T05:48:08.877888", "MEAN_MOTION": 14.20516508, "ECCENTRICITY": 0.01737917, "INCLINATION": 98.5768, "RA_OF_ASC_NODE": 330.62, "ARG_OF_PERICENTER": 31.6576, "MEAN_ANOMALY": 329.4914, "EPHEMERIS_TYPE": 0, "CLASSIFICATION_TYPE": "U", "NORAD_CAT_ID": 31025, "ELEMENT_SET_NO": 999, "REV_AT_EPOCH": 64273, "BSTAR": 0.0012547401, "MEAN_MOTION_DOT": 3.096e-05, "MEAN_MOTION_DDOT": 0}, "tle": {"line1": "1 31025U 99025BDT 25340.24176942  .00003096  00000+0  12547-2 0  9993", "line2": "2 31025  98.5768 330.6200 0173791  31.6576 329.4914 14.20516508642732"}}, "geometry": {"type": "Point", "coordinates": [154.93628490350463, 20.256152265554892]}}]}